0 INTELSAT 2-F3
1 02717U 67026A   13281.41358438 -.00000275  00000-0  10000-3 0  2159
2 02717 006.0104 309.9107 0022955 243.1209 116.4841 01.00274039 73778
0 INTELSAT 2-F3
1 02717U 67026A   13283.40813771  .00000000  00000-0  10000-3 0  2173
2 02717 006.0078 309.9107 0023541 245.3920 114.2241 01.00269237 73790
0 INTELSAT 2-F3
1 02717U 67026A   13287.39708229 -.00000293  00000-0  10000-3 0  2171
2 02717 006.0021 309.8900 0022979 243.7661 115.8319 01.00272058 73839
0 INTELSAT 2-F3
1 02717U 67026A   13290.38878530 -.00000292  00000-0  10000-3 0  2187
2 02717 005.9977 309.8783 0022950 243.9855 115.5790 01.00271082 73861
0 INTELSAT 2-F3
1 02717U 67026A   13290.38879670  .00000000  00000-0  10000-3 0  2190
2 02717 005.9973 309.8841 0023512 245.9566 113.6053 01.00267096 73869
0 INTELSAT 2-F3
1 02717U 67026A   13293.38062706 -.00000284  00000-0  10000-3 0  2192
2 02717 005.9927 309.8643 0023061 244.1196 115.4524 01.00270103 73896
